FACSAT-2                
1 56205U 23054AD  23333.60661292  .00028095  00000+0  10161-2 0  9992
2 56205  97.3874 226.9483 0014552 138.0325 222.2033 15.28298020 35415
