{"type": "Feature", "geometry": {"type": "Point", "coordinates": ["75.24", "-53.69"]}, "properties": {"temperature": "2", "pressure": "979", "localTime": "Wed Nov 29 2023 16:34:32 GMT-0500 (hora est\u00e1ndar de Colombia)", "julianTime": "1701293672", "utcTime": "4:34:44 PM", "altitude": "474.78", "elevation": "-42.7", "TLE": {"Norad_Id": 56205, "International_Classification": "Unclassified", "International_Designation": "23054AD", "Epoch_Time_(ISO)": "2023-11-29T14:33:31Z", "First_Derivative_Mean_Motion": 0.00028095, "Second_Derivative_Mean_Motion": 0.0, "Inclination": 97.3874, "Right_Ascension_of_the_Ascending_Node": 226.9483, "Eccentricity": 0.0014552, "Argument_of_Perigee": 138.0325, "Mean_Anomaly": 222.2033, "Mean_Motion": 15.2829802, "Revolution_Number_at_Epoch": 3541}}}